[{"OBJECT_NAME":"STARLINK-3950","OBJECT_ID":"2022-086Y","EPOCH":"2025-12-15T21:05:58.198848","MEAN_MOTION":15.08855662,"ECCENTRICITY":0.00023139,"INCLINATION":53.2145,"RA_OF_ASC_NODE":210.3599,"ARG_OF_PERICENTER":111.3435,"MEAN_ANOMALY":248.7804,"EPHEMERIS_TYPE":0,"CLASSIFICATION_TYPE":"U","NORAD_CAT_ID":53264,"ELEMENT_SET_NO":999,"REV_AT_EPOCH":18841,"BSTAR":0.00030116473,"MEAN_MOTION_DOT":4.51e-5,"MEAN_MOTION_DDOT":0},{"OBJECT_NAME":"STARLINK-4097","OBJECT_ID":"2022-086Z","EPOCH":"2025-12-15T22:20:09.026592","MEAN_MOTION":15.08840217,"ECCENTRICITY":0.0001495,"INCLINATION":53.2156,"RA_OF_ASC_NODE":210.1268,"ARG_OF_PERICENTER":85.4564,"MEAN_ANOMALY":274.6599,"EPHEMERIS_TYPE":0,"CLASSIFICATION_TYPE":"U","NORAD_CAT_ID":53265,"ELEMENT_SET_NO":999,"REV_AT_EPOCH":18842,"BSTAR":6.3810894e-5,"MEAN_MOTION_DOT":7.28e-6,"MEAN_MOTION_DDOT":0},{"OBJECT_NAME":"STARLINK-4058","OBJECT_ID":"2022-086AA","EPOCH":"2025-12-15T22:25:28.352352","MEAN_MOTION":15.08833377,"ECCENTRICITY":0.00014606,"INCLINATION":53.2156,"RA_OF_ASC_NODE":210.1104,"ARG_OF_PERICENTER":80.2553,"MEAN_ANOMALY":279.8605,"EPHEMERIS_TYPE":0,"CLASSIFICATION_TYPE":"U","NORAD_CAT_ID":53266,"ELEMENT_SET_NO":999,"REV_AT_EPOCH":18842,"BSTAR":0.00016094665,"MEAN_MOTION_DOT":2.274e-5,"MEAN_MOTION_DDOT":0},{"OBJECT_NAME":"STARLINK-4060","OBJECT_ID":"2022-086AB","EPOCH":"2025-12-15T22:09:34.347744","MEAN_MOTION":15.08835971,"ECCENTRICITY":0.00014632,"INCLINATION":53.2168,"RA_OF_ASC_NODE":210.1614,"ARG_OF_PERICENTER":72.6428,"MEAN_ANOMALY":287.4724,"EPHEMERIS_TYPE":0,"CLASSIFICATION_TYPE":"U","NORAD_CAT_ID":53267,"ELEMENT_SET_NO":999,"REV_AT_EPOCH":18842,"BSTAR":0.00011705223,"MEAN_MOTION_DOT":1.575e-5,"MEAN_MOTION_DDOT":0},{"OBJECT_NAME":"STARLINK-4109","OBJECT_ID":"2022-086AC","EPOCH":"2025-12-15T22:14:51.067680","MEAN_MOTION":15.08835536,"ECCENTRICITY":0.00014219,"INCLINATION":53.2163,"RA_OF_ASC_NODE":210.144,"ARG_OF_PERICENTER":92.6424,"MEAN_ANOMALY":267.4731,"EPHEMERIS_TYPE":0,"CLASSIFICATION_TYPE":"U","NORAD_CAT_ID":53268,"ELEMENT_SET_NO":999,"REV_AT_EPOCH":18842,"BSTAR":3.6213206e-5,"MEAN_MOTION_DOT":2.88e-6,"MEAN_MOTION_DDOT":0},{"OBJECT_NAME":"STARLINK-4057","OBJECT_ID":"2022-086AD","EPOCH":"2025-12-15T22:00:17.164512","MEAN_MOTION":15.08840218,"ECCENTRICITY":0.00014835,"INCLINATION":53.2155,"RA_OF_ASC_NODE":200.1886,"ARG_OF_PERICENTER":89.6215,"MEAN_ANOMALY":270.4947,"EPHEMERIS_TYPE":0,"CLASSIFICATION_TYPE":"U","NORAD_CAT_ID":53269,"ELEMENT_SET_NO":999,"REV_AT_EPOCH":18855,"BSTAR":0.00011151007,"MEAN_MOTION_DOT":1.487e-5,"MEAN_MOTION_DDOT":0},{"OBJECT_NAME":"STARLINK-4122","OBJECT_ID":"2022-086AG","EPOCH":"2025-12-15T20:30:11.398176","MEAN_MOTION":15.08842095,"ECCENTRICITY":0.00015708,"INCLINATION":53.2156,"RA_OF_ASC_NODE":200.4702,"ARG_OF_PERICENTER":91.3589,"MEAN_ANOMALY":268.7583,"EPHEMERIS_TYPE":0,"CLASSIFICATION_TYPE":"U","NORAD_CAT_ID":53272,"ELEMENT_SET_NO":999,"REV_AT_EPOCH":18854,"BSTAR":4.5089501e-5,"MEAN_MOTION_DOT":4.3e-6,"MEAN_MOTION_DDOT":0},{"OBJECT_NAME":"STARLINK-4051","OBJECT_ID":"2022-086AH","EPOCH":"2025-12-15T21:39:05.023872","MEAN_MOTION":15.08839366,"ECCENTRICITY":0.00014519,"INCLINATION":53.2163,"RA_OF_ASC_NODE":200.2557,"ARG_OF_PERICENTER":91.6092,"MEAN_ANOMALY":268.5067,"EPHEMERIS_TYPE":0,"CLASSIFICATION_TYPE":"U","NORAD_CAT_ID":53273,"ELEMENT_SET_NO":999,"REV_AT_EPOCH":18854,"BSTAR":-1.3117984e-5,"MEAN_MOTION_DOT":-4.97e-6,"MEAN_MOTION_DDOT":0},{"OBJECT_NAME":"STARLINK-4050","OBJECT_ID":"2022-086AJ","EPOCH":"2025-12-15T21:55:00.004800","MEAN_MOTION":15.08838841,"ECCENTRICITY":0.00013956,"INCLINATION":53.216,"RA_OF_ASC_NODE":200.2055,"ARG_OF_PERICENTER":89.095,"MEAN_ANOMALY":271.0202,"EPHEMERIS_TYPE":0,"CLASSIFICATION_TYPE":"U","NORAD_CAT_ID":53274,"ELEMENT_SET_NO":999,"REV_AT_EPOCH":18855,"BSTAR":7.8829922e-5,"MEAN_MOTION_DOT":9.67e-6,"MEAN_MOTION_DDOT":0},{"OBJECT_NAME":"STARLINK-4179","OBJECT_ID":"2022-086AK","EPOCH":"2025-12-15T19:58:23.819232","MEAN_MOTION":15.08838422,"ECCENTRICITY":0.0001564,"INCLINATION":53.2156,"RA_OF_ASC_NODE":200.5702,"ARG_OF_PERICENTER":93.3651,"MEAN_ANOMALY":266.752,"EPHEMERIS_TYPE":0,"CLASSIFICATION_TYPE":"U","NORAD_CAT_ID":53275,"ELEMENT_SET_NO":999,"REV_AT_EPOCH":18853,"BSTAR":5.3795271e-5,"MEAN_MOTION_DOT":5.68e-6,"MEAN_MOTION_DDOT":0},{"OBJECT_NAME":"STARLINK-4174","OBJECT_ID":"2022-086AL","EPOCH":"2025-12-15T21:44:22.519680","MEAN_MOTION":15.08841934,"ECCENTRICITY":0.00014524,"INCLINATION":53.2159,"RA_OF_ASC_NODE":200.2386,"ARG_OF_PERICENTER":84.6345,"MEAN_ANOMALY":275.4813,"EPHEMERIS_TYPE":0,"CLASSIFICATION_TYPE":"U","NORAD_CAT_ID":53276,"ELEMENT_SET_NO":999,"REV_AT_EPOCH":18854,"BSTAR":4.8573287e-5,"MEAN_MOTION_DOT":4.85e-6,"MEAN_MOTION_DDOT":0},{"OBJECT_NAME":"STARLINK-4178","OBJECT_ID":"2022-086AM","EPOCH":"2025-12-15T21:23:09.479616","MEAN_MOTION":15.08854813,"ECCENTRICITY":0.00014662,"INCLINATION":53.2159,"RA_OF_ASC_NODE":200.3349,"ARG_OF_PERICENTER":88.6498,"MEAN_ANOMALY":271.4662,"EPHEMERIS_TYPE":0,"CLASSIFICATION_TYPE":"U","NORAD_CAT_ID":53277,"ELEMENT_SET_NO":999,"REV_AT_EPOCH":18854,"BSTAR":0.00016529235,"MEAN_MOTION_DOT":2.345e-5,"MEAN_MOTION_DDOT":0},{"OBJECT_NAME":"STARLINK-4180","OBJECT_ID":"2022-086AN","EPOCH":"2025-12-15T19:53:05.478432","MEAN_MOTION":15.08833713,"ECCENTRICITY":0.00015389,"INCLINATION":53.2166,"RA_OF_ASC_NODE":200.5908,"ARG_OF_PERICENTER":99.503,"MEAN_ANOMALY":260.6136,"EPHEMERIS_TYPE":0,"CLASSIFICATION_TYPE":"U","NORAD_CAT_ID":53278,"ELEMENT_SET_NO":999,"REV_AT_EPOCH":18853,"BSTAR":-4.8752155e-5,"MEAN_MOTION_DOT":-1.064e-5,"MEAN_MOTION_DDOT":0},{"OBJECT_NAME":"STARLINK-4169","OBJECT_ID":"2022-086AQ","EPOCH":"2025-12-15T21:10:32.274336","MEAN_MOTION":15.08845977,"ECCENTRICITY":0.00012649,"INCLINATION":53.2173,"RA_OF_ASC_NODE":155.0182,"ARG_OF_PERICENTER":84.8681,"MEAN_ANOMALY":275.2456,"EPHEMERIS_TYPE":0,"CLASSIFICATION_TYPE":"U","NORAD_CAT_ID":53280,"ELEMENT_SET_NO":999,"REV_AT_EPOCH":18918,"BSTAR":-5.0526779e-5,"MEAN_MOTION_DOT":-1.092e-5,"MEAN_MOTION_DDOT":0},{"OBJECT_NAME":"STARLINK-4164","OBJECT_ID":"2022-086AS","EPOCH":"2025-12-15T21:17:53.868192","MEAN_MOTION":15.08827645,"ECCENTRICITY":0.00013304,"INCLINATION":53.2155,"RA_OF_ASC_NODE":200.324,"ARG_OF_PERICENTER":88.8792,"MEAN_ANOMALY":271.2352,"EPHEMERIS_TYPE":0,"CLASSIFICATION_TYPE":"U","NORAD_CAT_ID":53282,"ELEMENT_SET_NO":999,"REV_AT_EPOCH":18854,"BSTAR":7.6817702e-5,"MEAN_MOTION_DOT":9.34e-6,"MEAN_MOTION_DDOT":0},{"OBJECT_NAME":"STARLINK-4175","OBJECT_ID":"2022-086AT","EPOCH":"2025-12-15T21:01:58.998720","MEAN_MOTION":15.08838235,"ECCENTRICITY":0.00014738,"INCLINATION":53.2166,"RA_OF_ASC_NODE":200.374,"ARG_OF_PERICENTER":89.5298,"MEAN_ANOMALY":270.5863,"EPHEMERIS_TYPE":0,"CLASSIFICATION_TYPE":"U","NORAD_CAT_ID":53283,"ELEMENT_SET_NO":999,"REV_AT_EPOCH":18854,"BSTAR":3.5852656e-5,"MEAN_MOTION_DOT":2.83e-6,"MEAN_MOTION_DDOT":0}]
