STARLINK-3950           
1 53264U 22086Y   25349.87914582  .00004510  00000+0  30116-3 0  9998
2 53264  53.2145 210.3599 0002313 111.3435 248.7804 15.08855662188419
STARLINK-4097           
1 53265U 22086Z   25349.93066003  .00000728  00000+0  63811-4 0  9998
2 53265  53.2156 210.1268 0001495  85.4564 274.6599 15.08840217188427
STARLINK-4058           
1 53266U 22086AA  25349.93435593  .00002274  00000+0  16095-3 0  9992
2 53266  53.2156 210.1104 0001460  80.2553 279.8605 15.08833377188424
STARLINK-4060           
1 53267U 22086AB  25349.92331421  .00001575  00000+0  11705-3 0  9993
2 53267  53.2168 210.1614 0001463  72.6428 287.4724 15.08835971188422
STARLINK-4109           
1 53268U 22086AC  25349.92697995  .00000288  00000+0  36213-4 0  9997
2 53268  53.2163 210.1440 0001421  92.6424 267.4731 15.08835536188420
STARLINK-4057           
1 53269U 22086AD  25349.91686533  .00001487  00000+0  11151-3 0  9998
2 53269  53.2155 200.1886 0001483  89.6215 270.4947 15.08840218188557
STARLINK-4122           
1 53272U 22086AG  25349.85429859  .00000430  00000+0  45090-4 0  9998
2 53272  53.2156 200.4702 0001570  91.3589 268.7583 15.08842095188543
STARLINK-4051           
1 53273U 22086AH  25349.90214148 -.00000497  00000+0 -13118-4 0  9999
2 53273  53.2163 200.2557 0001451  91.6092 268.5067 15.08839366188540
STARLINK-4050           
1 53274U 22086AJ  25349.91319450  .00000967  00000+0  78830-4 0  9995
2 53274  53.2160 200.2055 0001395  89.0950 271.0202 15.08838841188550
STARLINK-4179           
1 53275U 22086AK  25349.83222013  .00000568  00000+0  53795-4 0  9995
2 53275  53.2156 200.5702 0001564  93.3651 266.7520 15.08838422188539
STARLINK-4174           
1 53276U 22086AL  25349.90581620  .00000485  00000+0  48573-4 0  9992
2 53276  53.2159 200.2386 0001452  84.6345 275.4813 15.08841934188542
STARLINK-4178           
1 53277U 22086AM  25349.89108194  .00002345  00000+0  16529-3 0  9994
2 53277  53.2159 200.3349 0001466  88.6498 271.4662 15.08854813188549
STARLINK-4180           
1 53278U 22086AN  25349.82853563 -.00001064  00000+0 -48752-4 0  9998
2 53278  53.2166 200.5908 0001538  99.5030 260.6136 15.08833713188535
STARLINK-4169           
1 53280U 22086AQ  25349.88231799 -.00001092  00000+0 -50527-4 0  9992
2 53280  53.2173 155.0182 0001264  84.8681 275.2456 15.08845977189183
STARLINK-4164           
1 53282U 22086AS  25349.88742903  .00000934  00000+0  76818-4 0  9991
2 53282  53.2155 200.3240 0001330  88.8792 271.2352 15.08827645188547
STARLINK-4175           
1 53283U 22086AT  25349.87637730  .00000283  00000+0  35853-4 0  9993
2 53283  53.2166 200.3740 0001473  89.5298 270.5863 15.08838235188548
